[{"OBJECT_NAME":"STARLINK-36258","OBJECT_ID":"2025-299C","EPOCH":"2026-03-09T07:06:36.567648","MEAN_MOTION":15.2762701,"ECCENTRICITY":0.00011749,"INCLINATION":43.0009,"RA_OF_ASC_NODE":171.4269,"ARG_OF_PERICENTER":249.4458,"MEAN_ANOMALY":110.6268,"EPHEMERIS_TYPE":0,"CLASSIFICATION_TYPE":"U","NORAD_CAT_ID":67104,"ELEMENT_SET_NO":999,"REV_AT_EPOCH":1305,"BSTAR":0.0011733066,"MEAN_MOTION_DOT":0.00032212,"MEAN_MOTION_DDOT":0},{"OBJECT_NAME":"DMSP 5D-2 F14 DEB","OBJECT_ID":"1997-012G","EPOCH":"2026-03-09T18:05:19.087296","MEAN_MOTION":15.2878374,"ECCENTRICITY":0.00491251,"INCLINATION":99.2047,"RA_OF_ASC_NODE":151.8456,"ARG_OF_PERICENTER":247.1908,"MEAN_ANOMALY":112.4133,"EPHEMERIS_TYPE":0,"CLASSIFICATION_TYPE":"U","NORAD_CAT_ID":62936,"ELEMENT_SET_NO":999,"REV_AT_EPOCH":6425,"BSTAR":0.05046686,"MEAN_MOTION_DOT":0.01624988,"MEAN_MOTION_DDOT":0}]
